[{"OBJECT_NAME":"SENTINEL-2A","OBJECT_ID":"2015-028A","EPOCH":"2026-02-25T04:19:12.423360","MEAN_MOTION":14.30192923,"ECCENTRICITY":0.00543683,"INCLINATION":98.5024,"RA_OF_ASC_NODE":132.8928,"ARG_OF_PERICENTER":194.7437,"MEAN_ANOMALY":165.2162,"EPHEMERIS_TYPE":0,"CLASSIFICATION_TYPE":"U","NORAD_CAT_ID":40697,"ELEMENT_SET_NO":999,"REV_AT_EPOCH":55771,"BSTAR":7.6852184e-5,"MEAN_MOTION_DOT":1.59e-6,"MEAN_MOTION_DDOT":0},{"OBJECT_NAME":"COSMOS 1275 DEB","OBJECT_ID":"1981-053RK","EPOCH":"2026-03-07T11:06:02.848608","MEAN_MOTION":14.23469257,"ECCENTRICITY":0.00225164,"INCLINATION":83.0668,"RA_OF_ASC_NODE":334.3044,"ARG_OF_PERICENTER":21.1009,"MEAN_ANOMALY":339.1098,"EPHEMERIS_TYPE":0,"CLASSIFICATION_TYPE":"U","NORAD_CAT_ID":42147,"ELEMENT_SET_NO":999,"REV_AT_EPOCH":63454,"BSTAR":0.0013942484,"MEAN_MOTION_DOT":3.192e-5,"MEAN_MOTION_DDOT":0}]
